{
  "norad_id": 51132,
  "name": "STARLINK-3393",
  "history": [
    {
      "epoch": "2026-03-28T18:04:35.257440Z",
      "apogee_km": 540.6897329919384,
      "perigee_km": 538.7801236248479,
      "latitude_deg": -1.2740266779917232e-05,
      "longitude_deg": 116.22567480851775,
      "height_km": 540.6695538190758,
      "semi_major_axis_km": 6917.871928308393,
      "eccentricity": 0.00013802,
      "inclination_deg": 53.2165,
      "raan_deg": 213.5417,
      "arg_perigee_deg": 92.3433,
      "mean_anomaly_deg": 267.7717,
      "mean_motion_rev_day": 15.08842768
    }
  ]
}